{
    "links": {
        "self": "http://www.neowsapp.com/rest/v1/neo/3740914?api_key=iIulBulltgU6a56xZRHN4H3l9WmuAYTsLGpBGhQ2"
    },
    "id": "3740914",
    "neo_reference_id": "3740914",
    "name": "(2016 BN14)",
    "designation": "2016 BN14",
    "nasa_jpl_url": "http://ssd.jpl.nasa.gov/sbdb.cgi?sstr=3740914",
    "absolute_magnitude_h": 26.3,
    "estimated_diameter": {
        "kilometers": {
            "estimated_diameter_min": 0.0146067964,
            "estimated_diameter_max": 0.0326617897
        },
        "meters": {
            "estimated_diameter_min": 14.6067964271,
            "estimated_diameter_max": 32.6617897446
        },
        "miles": {
            "estimated_diameter_min": 0.0090762397,
            "estimated_diameter_max": 0.020295089
        },
        "feet": {
            "estimated_diameter_min": 47.92256199,
            "estimated_diameter_max": 107.1581062656
        }
    },
    "is_potentially_hazardous_asteroid": false,
    "close_approach_data": [
        {
            "close_approach_date": "2016-01-24",
            "close_approach_date_full": "2016-Jan-24 05:51",
            "epoch_date_close_approach": 1453614660000,
            "relative_velocity": {
                "kilometers_per_second": "22.4501516236",
                "kilometers_per_hour": "80820.5458450086",
                "miles_per_hour": "50218.744166861"
            },
            "miss_distance": {
                "astronomical": "0.0146071552",
                "lunar": "5.6821833728",
                "kilometers": "2185199.304679424",
                "miles": "1357819.8849830912"
            },
            "orbiting_body": "Earth"
        },
        {
            "close_approach_date": "2017-11-20",
            "close_approach_date_full": "2017-Nov-20 16:36",
            "epoch_date_close_approach": 1511195760000,
            "relative_velocity": {
                "kilometers_per_second": "5.4627727192",
                "kilometers_per_hour": "19665.9817890348",
                "miles_per_hour": "12219.6762955256"
            },
            "miss_distance": {
                "astronomical": "1.499718464",
                "lunar": "583.390482496",
                "kilometers": "224354687.81407168",
                "miles": "139407538.594201984"
            },
            "orbiting_body": "Juptr"
        }
    ],
    "orbital_data": {
        "orbit_id": "4",
        "orbit_determination_date": "2019-07-10 05:35:25",
        "first_observation_date": "2016-01-28",
        "last_observation_date": "2016-02-04",
        "data_arc_in_days": 7,
        "observations_used": 34,
        "orbit_uncertainty": "8",
        "minimum_orbit_intersection": ".00202308",
        "jupiter_tisserand_invariant": "3.061",
        "epoch_osculation": "2457417.5",
        "eccentricity": ".7554862974799662",
        "semi_major_axis": "2.376250756712897",
        "inclination": "10.11918487733779",
        "ascending_node_longitude": "127.5496827965469",
        "orbital_period": "1337.940589109114",
        "perihelion_distance": ".5810258706399026",
        "perihelion_argument": "268.9196093742345",
        "aphelion_distance": "4.171475642785892",
        "perihelion_time": "2457367.585968543849",
        "mean_anomaly": "13.43038059423797",
        "mean_motion": ".2690702434251666",
        "equinox": "J2000",
        "orbit_class": {
            "orbit_class_type": "APO",
            "orbit_class_description": "Near-Earth asteroid orbits which cross the Earth’s orbit similar to that of 1862 Apollo",
            "orbit_class_range": "a (semi-major axis) > 1.0 AU; q (perihelion) < 1.017 AU"
        }
    },
    "is_sentry_object": false
}